{
  "type": "FeatureCollection",
  "features": [
    {
      "type": "Feature",
      "id": 2,
      "properties": {
        "id": 2,
        "type": "house",
        "name": "Casa 2",
        "height": 35,
        "floors": 10,
        "color": "#fbbf24",
        "fillColor": "#fbbf24",
        "uso_suelo": "mixto"
      },
      "geometry": {
        "type": "Polygon",
        "coordinates": [
          [
            [
              -105.11655525693894,
              21.64734143884286
            ],
            [
              -105.11635525693893,
              21.64734143884286
            ],
            [
              -105.11635525693893,
              21.64754143884286
            ],
            [
              -105.11655525693894,
              21.64754143884286
            ],
            [
              -105.11655525693894,
              21.64734143884286
            ]
          ]
        ]
      }
    },
    {
      "type": "Feature",
      "id": 3,
      "properties": {
        "id": 3,
        "type": "house",
        "name": "Casa 1",
        "height": 5,
        "floors": 2,
        "color": "#244594",
        "fillColor": "#244594",
        "uso_suelo": "habitacional"
      },
      "geometry": {
        "type": "Polygon",
        "coordinates": [
          [
            [
              -105.1161529255867,
              21.6472940711425
            ],
            [
              -105.1159529255867,
              21.6472940711425
            ],
            [
              -105.1159529255867,
              21.6474940711425
            ],
            [
              -105.1161529255867,
              21.6474940711425
            ],
            [
              -105.1161529255867,
              21.6472940711425
            ]
          ]
        ]
      }
    },
    {
      "type": "Feature",
      "id": 4,
      "properties": {
        "id": 4,
        "type": "building",
        "name": "Edificio 4",
        "height": 100,
        "floors": 8,
        "color": "#818cf8",
        "fillColor": "#818cf8",
        "uso_suelo": "industrial"
      },
      "geometry": {
        "type": "Polygon",
        "coordinates": [
          [
            [
              -105.1162329255867,
              21.648458091380007
            ],
            [
              -105.1158729255867,
              21.648458091380007
            ],
            [
              -105.1158729255867,
              21.648818091380008
            ],
            [
              -105.1162329255867,
              21.648818091380008
            ],
            [
              -105.1162329255867,
              21.648458091380007
            ]
          ]
        ]
      }
    },
    {
      "type": "Feature",
      "id": 5,
      "properties": {
        "id": 5,
        "type": "park",
        "name": "Parque 5",
        "color": "#4ade80",
        "fillColor": "#86efac"
      },
      "geometry": {
        "type": "Polygon",
        "coordinates": [
          [
            [
              -105.1152241230011,
              21.648306519899663
            ],
            [
              -105.1152241230011,
              21.648306519899663
            ],
            [
              -105.1152241230011,
              21.648306519899663
            ],
            [
              -105.1152241230011,
              21.648306519899663
            ]
          ]
        ]
      }
    },
    {
      "type": "Feature",
      "id": 6,
      "properties": {
        "id": 6,
        "type": "park",
        "name": "Parque 6",
        "color": "#4ade80",
        "fillColor": "#86efac"
      },
      "geometry": {
        "type": "Polygon",
        "coordinates": [
          [
            [
              -105.11515974998474,
              21.64831649198537
            ],
            [
              -105.11487007141113,
              21.648792658275994
            ],
            [
              -105.11486202478409,
              21.648790165262852
            ],
            [
              -105.11486202478409,
              21.648790165262852
            ],
            [
              -105.11515974998474,
              21.64831649198537
            ]
          ]
        ]
      }
    },
    {
      "type": "Feature",
      "id": 7,
      "properties": {
        "id": 7,
        "type": "park",
        "name": "Parque 7",
        "color": "#4ade80",
        "fillColor": "#86efac"
      },
      "geometry": {
        "type": "Polygon",
        "coordinates": [
          [
            [
              -105.11514902114868,
              21.648336436154707
            ],
            [
              -105.11511415243149,
              21.648306519899663
            ],
            [
              -105.11483520269394,
              21.6481594315555
            ],
            [
              -105.11483520269394,
              21.6481594315555
            ],
            [
              -105.11514902114868,
              21.648336436154707
            ]
          ]
        ]
      }
    },
    {
      "type": "Feature",
      "id": 8,
      "properties": {
        "id": 8,
        "type": "park",
        "name": "Parque 8",
        "color": "#4ade80",
        "fillColor": "#86efac"
      },
      "geometry": {
        "type": "Polygon",
        "coordinates": [
          [
            [
              -105.1148271560669,
              21.648174389699037
            ],
            [
              -105.11451870203018,
              21.648697923746468
            ],
            [
              -105.11451870203018,
              21.648697923746468
            ],
            [
              -105.1148271560669,
              21.648174389699037
            ]
          ]
        ]
      }
    },
    {
      "type": "Feature",
      "id": 9,
      "properties": {
        "id": 9,
        "type": "park",
        "name": "Parque 9",
        "color": "#4ade80",
        "fillColor": "#86efac"
      },
      "geometry": {
        "type": "Polygon",
        "coordinates": [
          [
            [
              -105.11451870203018,
              21.648697923746468
            ],
            [
              -105.11451870203018,
              21.648697923746468
            ],
            [
              -105.11483788490295,
              21.648154445507302
            ],
            [
              -105.11483788490295,
              21.648154445507302
            ],
            [
              -105.11451870203018,
              21.648697923746468
            ]
          ]
        ]
      }
    },
    {
      "type": "Feature",
      "id": 10,
      "properties": {
        "id": 10,
        "type": "park",
        "name": "Parque 10",
        "color": "#4ade80",
        "fillColor": "#86efac"
      },
      "geometry": {
        "type": "Polygon",
        "coordinates": [
          [
            [
              -105.11486738920212,
              21.648166910627452
            ],
            [
              -105.11457234621048,
              21.64867797962708
            ],
            [
              -105.11482983827591,
              21.64880263032812
            ],
            [
              -105.11482983827591,
              21.64880263032812
            ],
            [
              -105.11486738920212,
              21.648166910627452
            ]
          ]
        ]
      }
    },
    {
      "type": "Feature",
      "id": 11,
      "properties": {
        "id": 11,
        "type": "road",
        "name": "Vía 11",
        "color": "#94a3b8",
        "fillColor": "#94a3b8",
        "width": 4,
        "lanes": 2,
        "roadType": "secundaria"
      },
      "geometry": {
        "type": "LineString",
        "coordinates": [
          [
            -105.11581420898438,
            21.6502585425455
          ],
          [
            -105.11518657207489,
            21.649051931407286
          ],
          [
            -105.11518657207489,
            21.649051931407286
          ]
        ]
      }
    },
    {
      "type": "Feature",
      "id": 12,
      "properties": {
        "id": 12,
        "type": "road",
        "name": "Vía 12",
        "color": "#94a3b8",
        "fillColor": "#94a3b8",
        "width": 4,
        "lanes": 2,
        "roadType": "secundaria"
      },
      "geometry": {
        "type": "LineString",
        "coordinates": [
          [
            -105.1151892542839,
            21.64905941043301
          ],
          [
            -105.11534214019775,
            21.648620640268447
          ],
          [
            -105.11534214019775,
            21.648620640268447
          ]
        ]
      }
    }
  ]
}